OBJECT_NAME,OBJECT_ID,EPOCH,MEAN_MOTION,ECCENTRICITY,INCLINATION,RA_OF_ASC_NODE,ARG_OF_PERICENTER,MEAN_ANOMALY,EPHEMERIS_TYPE,CLASSIFICATION_TYPE,NORAD_CAT_ID,ELEMENT_SET_NO,REV_AT_EPOCH,BSTAR,MEAN_MOTION_DOT,MEAN_MOTION_DDOT
ONEWEB-0410,2022-012A,2026-07-18T21:11:01.234752,13.17647874,.00015101,87.9159,359.5551,48.9811,311.1450,0,U,51622,999,21787,-.61200829E-3,-.225E-5,0
ONEWEB-0411,2022-012B,2026-07-18T18:40:23.423232,13.10372403,.00023418,87.8821,29.9728,95.1016,265.0379,0,U,51623,999,21342,-.15063106E-2,-.513E-5,0
ONEWEB-0415,2022-012C,2026-07-18T02:05:54.381408,13.10370291,.00021344,87.8818,30.1079,87.0884,273.0487,0,U,51624,999,21333,-.12139737E-2,-.411E-5,0
ONEWEB-0416,2022-012D,2026-07-18T18:52:36.252480,13.10374822,.00021547,87.8812,29.9851,83.6095,276.5277,0,U,51625,999,21346,-.17724991E-2,-.606E-5,0
ONEWEB-0422,2022-012E,2026-07-18T21:25:36.198912,13.17647465,.00020328,87.9159,359.5533,112.9072,247.2275,0,U,51626,999,21798,.14280116E-3,.68E-6,0
ONEWEB-0423,2022-012F,2026-07-18T21:15:53.385984,13.17648238,.0001754,87.9148,359.5581,92.7942,267.3391,0,U,51627,999,21787,.32324989E-4,.25E-6,0
ONEWEB-0425,2022-012G,2026-07-18T11:47:22.913088,13.10400242,.00021665,87.8819,30.0279,75.7043,284.4325,0,U,51628,999,21342,-.64380206E-2,-.2235E-4,0
ONEWEB-0428,2022-012H,2026-07-18T18:37:56.396352,13.10372598,.00018071,87.8811,29.9780,88.8288,271.3047,0,U,51629,999,21342,-.11769985E-2,-.398E-5,0
ONEWEB-0431,2022-012J,2026-07-18T21:33:41.188896,13.10373992,.00024129,87.8819,29.9462,95.2341,264.9062,0,U,51630,999,21349,.17019331E-2,.607E-5,0
ONEWEB-0434,2022-012K,2026-07-18T11:52:33.084768,13.10377297,.00014666,87.8824,30.0535,69.3472,290.7813,0,U,51631,999,21342,-.76584636E-3,-.255E-5,0
ONEWEB-0435,2022-012L,2026-07-18T23:01:50.348928,13.10379304,.00019331,87.8818,29.9442,98.0104,262.1242,0,U,51632,999,21347,-.51632301E-4,-.5E-7,0
ONEWEB-0436,2022-012M,2026-07-18T21:03:44.248608,13.17647350,.00019523,87.9155,359.5437,99.9587,260.1765,0,U,51633,999,21785,-.27368085E-4,.2E-7,0
ONEWEB-0438,2022-012N,2026-07-18T18:59:55.090176,13.10373439,.0001788,87.8815,29.9818,81.2923,278.8407,0,U,51634,999,21348,-.17223429E-2,-.589E-5,0
ONEWEB-0439,2022-012P,2026-07-18T11:45:00.046368,13.10376769,.00017448,87.8819,30.0296,86.8944,273.2383,0,U,51635,999,21342,-.13984744E-2,-.476E-5,0
ONEWEB-0442,2022-012Q,2026-07-18T20:52:48.304128,13.17650898,.00016048,87.9147,359.5752,75.4264,284.7046,0,U,51636,999,21784,-.40266305E-4,-.3E-7,0
ONEWEB-0443,2022-012R,2026-07-18T21:20:44.641248,13.17647505,.00015787,87.9147,359.5727,98.9048,261.2262,0,U,51637,999,21789,.20246295E-3,.91E-6,0
ONEWEB-0444,2022-012S,2026-07-18T18:50:08.966400,13.10371857,.0001658,87.8819,29.9694,91.7504,268.3813,0,U,51638,999,21347,-.18075282E-2,-.618E-5,0
ONEWEB-0445,2022-012T,2026-07-18T22:59:22.872768,13.10377034,.00019098,87.8826,29.9252,85.4604,274.6741,0,U,51639,999,21350,-.13283443E-2,-.451E-5,0
ONEWEB-0446,2022-012U,2026-07-18T05:58:01.113600,13.10371516,.00020998,87.8815,30.0933,82.1971,277.9395,0,U,51640,999,21339,-.18024475E-2,-.616E-5,0
ONEWEB-0448,2022-012V,2026-07-18T11:35:12.840000,13.10373052,.00017948,87.8813,30.0419,88.5500,271.5833,0,U,51641,999,21339,-.22873675E-2,-.786E-5,0
ONEWEB-0449,2022-012W,2026-07-18T19:02:21.885504,13.10374171,.00017769,87.8821,29.9675,68.9539,291.1779,0,U,51642,999,21344,-.19224938E-2,-.658E-5,0
ONEWEB-0451,2022-012X,2026-07-18T20:58:51.872736,13.17648600,.00016819,87.9158,359.5427,89.5480,270.5844,0,U,51643,999,21783,-.55591252E-3,-.203E-5,0
ONEWEB-0452,2022-012Y,2026-07-18T20:56:26.908224,13.17647256,.00015466,87.9145,359.5769,93.8394,266.2915,0,U,51644,999,21784,-.10910819E-3,-.29E-6,0
ONEWEB-0456,2022-012AA,2026-07-18T06:24:53.843904,13.10375074,.00018287,87.8832,30.0618,92.7700,267.3637,0,U,51646,999,21341,-.61077089E-3,-.201E-5,0
ONEWEB-0457,2022-012AB,2026-07-18T05:52:56.447328,13.10371587,.0002056,87.8815,30.0813,78.7458,281.3901,0,U,51647,999,21341,-.15397706E-2,-.525E-5,0
ONEWEB-0458,2022-012AC,2026-07-18T11:53:33.338400,13.10376267,.00016171,87.8823,30.0201,87.6286,272.5027,0,U,51648,999,21340,-.67184346E-3,-.222E-5,0
ONEWEB-0461,2022-012AD,2026-07-18T21:28:02.034336,13.17648927,.00019173,87.9160,359.5522,90.6477,269.4874,0,U,51649,999,21806,-.450966E-3,-.162E-5,0
ONEWEB-0463,2022-012AE,2026-07-18T21:01:18.125472,13.17648267,.00019756,87.9148,359.5754,90.2961,269.8397,0,U,51650,999,21784,-.50384679E-3,-.183E-5,0
ONEWEB-0464,2022-012AF,2026-07-18T00:50:10.158720,13.10375658,.00016163,87.8816,30.1328,95.2991,264.8321,0,U,51651,999,21336,-.72165001E-3,-.239E-5,0
ONEWEB-0468,2022-012AG,2026-07-18T19:17:01.675104,13.10375495,.00017285,87.8816,29.9727,95.5482,264.5842,0,U,51652,999,21344,-.53506057E-3,-.174E-5,0
