ONEWEB-0410             
1 51622U 22012A   26199.88265318 -.00000225  00000+0 -61201-3 0  9994
2 51622  87.9159 359.5551 0001510  48.9811 311.1450 13.17647874217876
ONEWEB-0411             
1 51623U 22012B   26199.77804888 -.00000513  00000+0 -15063-2 0  9998
2 51623  87.8821  29.9728 0002341  95.1016 265.0379 13.10372403213420
ONEWEB-0415             
1 51624U 22012C   26199.08743497 -.00000411  00000+0 -12140-2 0  9991
2 51624  87.8818  30.1079 0002134  87.0884 273.0487 13.10370291213335
ONEWEB-0416             
1 51625U 22012D   26199.78653070 -.00000606  00000+0 -17725-2 0  9996
2 51625  87.8812  29.9851 0002154  83.6095 276.5277 13.10374822213465
ONEWEB-0422             
1 51626U 22012E   26199.89278008  .00000068  00000+0  14280-3 0  9997
2 51626  87.9159 359.5533 0002032 112.9072 247.2275 13.17647465217983
ONEWEB-0423             
1 51627U 22012F   26199.88603456  .00000025  00000+0  32325-4 0  9990
2 51627  87.9148 359.5581 0001754  92.7942 267.3391 13.17648238217875
ONEWEB-0425             
1 51628U 22012G   26199.49123742 -.00002235  00000+0 -64380-2 0  9994
2 51628  87.8819  30.0279 0002166  75.7043 284.4325 13.10400242213424
ONEWEB-0428             
1 51629U 22012H   26199.77634718 -.00000398  00000+0 -11770-2 0  9999
2 51629  87.8811  29.9780 0001807  88.8288 271.3047 13.10372598213426
ONEWEB-0431             
1 51630U 22012J   26199.89839339  .00000607  00000+0  17019-2 0  9993
2 51630  87.8819  29.9462 0002412  95.2341 264.9062 13.10373992213499
ONEWEB-0434             
1 51631U 22012K   26199.49482737 -.00000255  00000+0 -76585-3 0  9991
2 51631  87.8824  30.0535 0001466  69.3472 290.7813 13.10377297213421
ONEWEB-0435             
1 51632U 22012L   26199.95961052 -.00000005  00000+0 -51632-4 0  9995
2 51632  87.8818  29.9442 0001933  98.0104 262.1242 13.10379304213474
ONEWEB-0436             
1 51633U 22012M   26199.87759547  .00000002  00000+0 -27368-4 0  9996
2 51633  87.9155 359.5437 0001952  99.9587 260.1765 13.17647350217852
ONEWEB-0438             
1 51634U 22012N   26199.79160984 -.00000589  00000+0 -17223-2 0  9997
2 51634  87.8815  29.9818 0001788  81.2923 278.8407 13.10373439213482
ONEWEB-0439             
1 51635U 22012P   26199.48958387 -.00000476  00000+0 -13985-2 0  9992
2 51635  87.8819  30.0296 0001744  86.8944 273.2383 13.10376769213421
ONEWEB-0442             
1 51636U 22012Q   26199.87000352 -.00000003  00000+0 -40266-4 0  9996
2 51636  87.9147 359.5752 0001604  75.4264 284.7046 13.17650898217845
ONEWEB-0443             
1 51637U 22012R   26199.88940557  .00000091  00000+0  20246-3 0  9998
2 51637  87.9147 359.5727 0001578  98.9048 261.2262 13.17647505217894
ONEWEB-0444             
1 51638U 22012S   26199.78482600 -.00000618  00000+0 -18075-2 0  9991
2 51638  87.8819  29.9694 0001658  91.7504 268.3813 13.10371857213475
ONEWEB-0445             
1 51639U 22012T   26199.95790362 -.00000451  00000+0 -13283-2 0  9999
2 51639  87.8826  29.9252 0001909  85.4604 274.6741 13.10377034213501
ONEWEB-0446             
1 51640U 22012U   26199.24862400 -.00000616  00000+0 -18024-2 0  9997
2 51640  87.8815  30.0933 0002099  82.1971 277.9395 13.10371516213399
ONEWEB-0448             
1 51641U 22012V   26199.48278750 -.00000786  00000+0 -22874-2 0  9999
2 51641  87.8813  30.0419 0001794  88.5500 271.5833 13.10373052213390
ONEWEB-0449             
1 51642U 22012W   26199.79330886 -.00000658  00000+0 -19225-2 0  9997
2 51642  87.8821  29.9675 0001776  68.9539 291.1779 13.10374171213441
ONEWEB-0451             
1 51643U 22012X   26199.87421149 -.00000203  00000+0 -55591-3 0  9993
2 51643  87.9158 359.5427 0001681  89.5480 270.5844 13.17648600217831
ONEWEB-0452             
1 51644U 22012Y   26199.87253366 -.00000029  00000+0 -10911-3 0  9991
2 51644  87.9145 359.5769 0001546  93.8394 266.2915 13.17647256217847
ONEWEB-0456             
1 51646U 22012AA  26199.26728986 -.00000201  00000+0 -61077-3 0  9992
2 51646  87.8832  30.0618 0001828  92.7700 267.3637 13.10375074213418
ONEWEB-0457             
1 51647U 22012AB  26199.24509777 -.00000525  00000+0 -15398-2 0  9999
2 51647  87.8815  30.0813 0002056  78.7458 281.3901 13.10371587213410
ONEWEB-0458             
1 51648U 22012AC  26199.49552475 -.00000222  00000+0 -67184-3 0  9995
2 51648  87.8823  30.0201 0001617  87.6286 272.5027 13.10376267213401
ONEWEB-0461             
1 51649U 22012AD  26199.89446799 -.00000162  00000+0 -45097-3 0  9993
2 51649  87.9160 359.5522 0001917  90.6477 269.4874 13.17648927218065
ONEWEB-0463             
1 51650U 22012AE  26199.87590423 -.00000183  00000+0 -50385-3 0  9996
2 51650  87.9148 359.5754 0001975  90.2961 269.8397 13.17648267217844
ONEWEB-0464             
1 51651U 22012AF  26199.03483980 -.00000239  00000+0 -72165-3 0  9996
2 51651  87.8816  30.1328 0001616  95.2991 264.8321 13.10375658213364
ONEWEB-0468             
1 51652U 22012AG  26199.80349161 -.00000174  00000+0 -53506-3 0  9990
2 51652  87.8816  29.9727 0001728  95.5482 264.5842 13.10375495213449
